ONEWEB-0199             
1 48234U 21031AA  26016.25424086 -.00000196  00000+0 -56314-3 0  9993
2 48234  87.9027 319.9693 0001811  74.0840 286.0489 13.14503951228304
ONEWEB-0203             
1 48235U 21031AB  26016.54919189 -.00000106  00000+0 -32117-3 0  9995
2 48235  87.9026 319.9101 0001523  73.0634 287.0663 13.14503521228351
ONEWEB-0197             
1 48236U 21031AC  26016.37144836  .00000144  00000+0  35372-3 0  9992
2 48236  87.9027 319.9446 0002058  82.5844 277.5519 13.14502919228249
ONEWEB-0194             
1 48237U 21031AD  26016.57932963  .00000095  00000+0  22096-3 0  9995
2 48237  87.9026 319.9205 0001744  70.7585 289.3734 13.14502646228443
ONEWEB-0193             
1 48238U 21031AE  26016.59518493  .00000227  00000+0  57893-3 0  9996
2 48238  87.9024 319.9109 0001820  64.2072 295.9246 13.14503241228396
ONEWEB-0191             
1 48239U 21031AF  26016.53016752  .00000222  00000+0  56368-3 0  9993
2 48239  87.9034 319.9162 0001800  76.5731 283.5600 13.14504001228249
ONEWEB-0195             
1 48240U 21031AG  26016.58327577  .00000121  00000+0  29117-3 0  9990
2 48240  87.9027 319.9035 0001394  86.7989 273.3301 13.14504758228231
ONEWEB-0201             
1 48241U 21031AH  26016.57152498 -.00000142  00000+0 -41812-3 0  9999
2 48241  87.9019 319.9392 0001865  87.4918 272.6425 13.14504701228464
